NORAD_CAT_ID,OBJECT_NAME,OBJECT_TYPE,EPOCH,MEAN_MOTION,ECCENTRICITY,INCLINATION,RA_OF_ASC_NODE,ARG_OF_PERICENTER,MEAN_ANOMALY,BSTAR,MEAN_MOTION_DOT,MEAN_MOTION_DDOT,TLE_LINE0,TLE_LINE1,TLE_LINE2,SEMIMAJOR_AXIS,PERIOD,APOGEE,PERIGEE,DECAYED
51139.0,STARLINK-3172,PAYLOAD,2023-09-14 11:38:35,15.08843233,0.0001402,53.218,51.7221,90.5493,269.566,0.00013505,1.862e-05,0.0,0 STARLINK-3172,1 51139U 22005AM  23257.48513834  .00001862  00000-0  13505-3 0  9997,2 51139  53.2180  51.7221 0001402  90.5493 269.5660 15.08843233 91781,6917.871,95.437,540.705,538.766,0.0
51139.0,STARLINK-3172,PAYLOAD,2023-09-14 18:00:08,15.08847985,0.0001248,53.2173,50.5318,80.9103,279.203,0.00021689,3.166e-05,0.0,0 STARLINK-3172,1 51139U 22005AM  23257.75009684  .00003166  00000-0  21689-3 0  9991,2 51139  53.2173  50.5318 0001248  80.9103 279.2030 15.08847985 91828,6917.856,95.437,540.584,538.858,0.0
51139.0,STARLINK-3172,PAYLOAD,2023-09-15 09:53:59,15.0884144,0.0001323,53.2179,47.5566,82.8983,277.2159,0.000125,1.702e-05,0.0,0 STARLINK-3172,1 51139U 22005AM  23258.41249910  .00001702  00000-0  12500-3 0  9999,2 51139  53.2179  47.5566 0001323  82.8983 277.2159 15.08841440 91927,6917.876,95.437,540.656,538.826,0.0
51139.0,STARLINK-3172,PAYLOAD,2023-09-15 16:15:32,15.08835662,0.000129,53.2171,46.3675,90.9156,269.1984,-3.9795e-05,-9.21e-06,0.0,0 STARLINK-3172,1 51139U 22005AM  23258.67746164 -.00000921  00000-0 -39795-4 0  9990,2 51139  53.2171  46.3675 0001290  90.9156 269.1984 15.08835662 93075,6917.894,95.438,540.651,538.866,0.0
51139.0,STARLINK-3172,PAYLOAD,2023-09-16 12:55:33,15.08838563,0.0001348,53.218,42.5026,85.5722,274.5424,0.00010613,1.401e-05,0.0,0 STARLINK-3172,1 51139U 22005AM  23259.53858683  .00001401  00000-0  10613-3 0  9995,2 51139  53.2180  42.5026 0001348  85.5722 274.5424 15.08838563 92099,6917.885,95.438,540.682,538.817,0.0
51139.0,STARLINK-3172,PAYLOAD,2023-09-17 09:35:35,15.08833843,0.000137,53.2185,38.6364,90.7818,269.3331,0.00034348,5.182e-05,0.0,0 STARLINK-3172,1 51139U 22005AM  23260.39971286  .00005182  00000-0  34348-3 0  9997,2 51139  53.2185  38.6364 0001370  90.7818 269.3331 15.08833843 93337,6917.899,95.438,540.712,538.816,0.0
51139.0,STARLINK-3172,PAYLOAD,2023-09-17 12:46:21,15.08839716,0.0001383,53.2188,38.0427,88.8461,271.269,0.00025604,3.789e-05,0.0,0 STARLINK-3172,1 51139U 22005AM  23260.53218962  .00003789  00000-0  25604-3 0  9994,2 51139  53.2188  38.0427 0001383  88.8461 271.2690 15.08839716 92244,6917.881,95.438,540.703,538.79,0.0
51139.0,STARLINK-3172,PAYLOAD,2023-09-18 14:12:32,15.08825281,0.0001314,53.2192,33.2849,92.5842,267.5301,-2.909e-05,-7.51e-06,0.0,0 STARLINK-3172,1 51139U 22005AM  23261.59204282 -.00000751  00000-0 -29090-4 0  9993,2 51139  53.2192  33.2849 0001314  92.5842 267.5301 15.08825281 92400,6917.925,95.438,540.699,538.881,0.0
51139.0,STARLINK-3172,PAYLOAD,2023-09-18 15:47:55,15.08826549,0.0001287,53.219,32.9874,90.8068,269.3072,-5.0646e-05,-1.093e-05,0.0,0 STARLINK-3172,1 51139U 22005AM  23261.65828259 -.00001093  00000-0 -50646-4 0  9997,2 51139  53.2190  32.9874 0001287  90.8068 269.3072 15.08826549 93529,6917.922,95.438,540.677,538.896,0.0
51139.0,STARLINK-3172,PAYLOAD,2023-09-18 18:58:41,15.08830305,0.0001226,53.2194,32.3915,103.1675,256.9455,-5.8542e-05,-1.219e-05,0.0,0 STARLINK-3172,1 51139U 22005AM  23261.79076047 -.00001219  00000-0 -58542-4 0  9995,2 51139  53.2194  32.3915 0001226 103.1675 256.9455 15.08830305 92439,6917.91,95.438,540.623,538.927,0.0
51139.0,STARLINK-3172,PAYLOAD,2023-09-19 01:20:13,15.08837377,0.0001159,53.2188,31.2032,93.2289,266.8836,5.3411e-05,5.62e-06,0.0,0 STARLINK-3172,1 51139U 22005AM  23262.05571395  .00000562  00000-0  53411-4 0  9999,2 51139  53.2188  31.2032 0001159  93.2289 266.8836 15.08837377 93581,6917.888,95.438,540.555,538.952,0.0
51139.0,STARLINK-3172,PAYLOAD,2023-09-19 14:03:17,15.08857235,0.0001524,53.2202,28.8249,108.4927,251.6231,0.00018031,2.584e-05,0.0,0 STARLINK-3172,1 51139U 22005AM  23262.58561556  .00002584  00000-0  18031-3 0  9999,2 51139  53.2202  28.8249 0001524 108.4927 251.6231 15.08857235 93669,6917.828,95.436,540.747,538.638,0.0
51139.0,STARLINK-3172,PAYLOAD,2023-09-20 12:18:43,15.08822529,0.0001534,53.2189,24.6583,120.0496,240.0648,6.6997e-05,7.78e-06,0.0,0 STARLINK-3172,1 51139U 22005AM  23263.51300493  .00000778  00000-0  66997-4 0  9992,2 51139  53.2189  24.6583 0001534 120.0496 240.0648 15.08822529 93808,6917.934,95.439,540.86,538.738,0.0
51139.0,STARLINK-3172,PAYLOAD,2023-09-20 13:54:06,15.0882094,0.0001801,53.219,24.3601,133.292,226.8222,4.2474e-05,3.88e-06,0.0,0 STARLINK-3172,1 51139U 22005AM  23263.57924618  .00000388  00000-0  42474-4 0  9990,2 51139  53.2190  24.3601 0001801 133.2920 226.8222 15.08820940 92706,6917.939,95.439,541.05,538.558,0.0
51139.0,STARLINK-3172,PAYLOAD,2023-09-20 15:29:30,15.08823108,0.0001128,53.2187,24.0651,96.4762,263.6359,7.1807e-05,8.55e-06,0.0,0 STARLINK-3172,1 51139U 22005AM  23263.64548718  .00000855  00000-0  71807-4 0  9992,2 51139  53.2187  24.0651 0001128  96.4762 263.6359 15.08823108 92710,6917.932,95.439,540.577,539.017,0.0
51139.0,STARLINK-3172,PAYLOAD,2023-09-21 07:23:20,15.08838495,9.29e-05,53.2179,21.0914,122.0788,238.0294,5.4658e-05,5.82e-06,0.0,0 STARLINK-3172,1 51139U 22005AM  23264.30788034  .00000582  00000-0  54658-4 0  9995,2 51139  53.2179  21.0914 0000929 122.0788 238.0294 15.08838495 93925,6917.885,95.438,540.393,539.107,0.0
51139.0,STARLINK-3172,PAYLOAD,2023-09-21 13:44:52,15.08851196,9.93e-05,53.2191,19.9074,48.7134,311.3944,4.0174e-05,3.52e-06,0.0,0 STARLINK-3172,1 51139U 22005AM  23264.57283227  .00000352  00000-0  40174-4 0  9991,2 51139  53.2191  19.9074 0000993  48.7134 311.3944 15.08851196 92853,6917.846,95.437,540.398,539.024,0.0
51139.0,STARLINK-3172,PAYLOAD,2023-09-21 15:20:14,15.08866399,0.0001182,53.2187,19.6055,95.8906,264.2221,8.2041e-05,1.019e-05,0.0,0 STARLINK-3172,1 51139U 22005AM  23264.63906019  .00001019  00000-0  82041-4 0  9999,2 51139  53.2187  19.6055 0001182  95.8906 264.2221 15.08866399 93974,6917.8,95.436,540.482,538.847,0.0
51139.0,STARLINK-3172,PAYLOAD,2023-09-22 13:35:40,15.08838688,0.0001069,53.2185,15.4434,87.1632,272.9483,0.0002003,2.901e-05,0.0,0 STARLINK-3172,1 51139U 22005AM  23265.56643686  .00002901  00000-0  20030-3 0  9990,2 51139  53.2185  15.4434 0001069  87.1632 272.9483 15.08838688 93001,6917.884,95.438,540.489,539.01,0.0
51139.0,STARLINK-3172,PAYLOAD,2023-09-22 15:11:03,15.08842183,0.0001097,53.2187,15.1462,95.1002,265.0115,0.00022727,3.331e-05,0.0,0 STARLINK-3172,1 51139U 22005AM  23265.63267395  .00003331  00000-0  22727-3 0  9990,2 51139  53.2187  15.1462 0001097  95.1002 265.0115 15.08842183 94126,6917.874,95.437,540.498,538.98,0.0
51139.0,STARLINK-3172,PAYLOAD,2023-09-22 19:57:11,15.08841804,9.62e-05,53.2192,14.2504,74.0115,286.0983,0.00041197,6.275e-05,0.0,0 STARLINK-3172,1 51139U 22005AM  23265.83138864  .00006275  00000-0  41197-3 0  9992,2 51139  53.2192  14.2504 0000962  74.0115 286.0983 15.08841804 93045,6917.875,95.437,540.405,539.074,0.0
51139.0,STARLINK-3172,PAYLOAD,2023-09-23 00:43:22,15.08829811,8.41e-05,53.2183,13.3617,118.3031,241.8046,-1.0487e-05,-4.54e-06,0.0,0 STARLINK-3172,1 51139U 22005AM  23266.03012477 -.00000454  00000-0 -10487-4 0  9990,2 51139  53.2183  13.3617 0000841 118.3031 241.8046 15.08829811 94184,6917.912,95.438,540.358,539.195,0.0
51139.0,STARLINK-3172,PAYLOAD,2023-09-23 11:51:03,15.08854848,0.0001388,53.219,11.2802,91.2895,268.8256,-2.8801e-05,-7.46e-06,0.0,0 STARLINK-3172,1 51139U 22005AM  23266.49379012 -.00000746  00000-0 -28801-4 0  9994,2 51139  53.2190  11.2802 0001388  91.2895 268.8256 15.08854848 94257,6917.835,95.437,540.66,538.74,0.0
51139.0,STARLINK-3172,PAYLOAD,2023-09-23 13:26:26,15.08853775,0.000127,53.2194,10.9838,88.117,271.9968,-2.7148e-05,-7.2e-06,0.0,0 STARLINK-3172,1 51139U 22005AM  23266.56003028 -.00000720  00000-0 -27148-4 0  9998,2 51139  53.2194  10.9838 0001270  88.1170 271.9968 15.08853775 93158,6917.838,95.437,540.582,538.825,0.0
51139.0,STARLINK-3172,PAYLOAD,2023-09-24 10:06:27,15.08848202,0.0001124,53.2183,7.1186,89.7822,270.3299,-2.9281e-05,-7.54e-06,0.0,0 STARLINK-3172,1 51139U 22005AM  23267.42115298 -.00000754  00000-0 -29281-4 0  9994,2 51139  53.2183   7.1186 0001124  89.7822 270.3299 15.08848202 94395,6917.855,95.437,540.498,538.943,0.0
51139.0,STARLINK-3172,PAYLOAD,2023-09-24 13:17:13,15.08851562,0.0001268,53.219,6.524,83.9431,276.1706,1.7276e-05,-1.3e-07,0.0,0 STARLINK-3172,1 51139U 22005AM  23267.55362953 -.00000013  00000-0  17276-4 0  9998,2 51139  53.2190   6.5240 0001268  83.9431 276.1706 15.08851562 93308,6917.845,95.437,540.587,538.833,0.0
51139.0,STARLINK-3172,PAYLOAD,2023-09-25 09:57:14,15.08840769,0.0001513,53.2187,2.6598,101.5509,258.5653,5.9992e-05,6.67e-06,0.0,0 STARLINK-3172,1 51139U 22005AM  23268.41475482  .00000667  00000-0  59992-4 0  9991,2 51139  53.2187   2.6598 0001513 101.5509 258.5653 15.08840769 94542,6917.878,95.438,540.79,538.696,0.0
51139.0,STARLINK-3172,PAYLOAD,2023-09-25 13:08:00,15.08846471,0.0001486,53.2196,2.0651,99.0784,261.0376,0.0001041,1.369e-05,0.0,0 STARLINK-3172,1 51139U 22005AM  23268.54723057  .00001369  00000-0  10410-3 0  9990,2 51139  53.2196   2.0651 0001486  99.0784 261.0376 15.08846471 93457,6917.861,95.437,540.754,538.698,0.0
51139.0,STARLINK-3172,PAYLOAD,2023-09-25 17:54:09,15.08859761,0.0001365,53.2199,1.1689,107.097,253.0172,0.00014435,2.011e-05,0.0,0 STARLINK-3172,1 51139U 22005AM  23268.74593907  .00002011  00000-0  14435-3 0  9997,2 51139  53.2199   1.1689 0001365 107.0970 253.0172 15.08859761 94591,6917.82,95.436,540.629,538.741,0.0
51139.0,STARLINK-3172,PAYLOAD,2023-09-26 09:48:02,15.08826187,0.0001609,53.2194,358.1987,98.555,261.5625,-9.4818e-05,-1.796e-05,0.0,0 STARLINK-3172,1 51139U 22005AM  23269.40836443 -.00001796  00000-0 -94818-4 0  9991,2 51139  53.2194 358.1987 0001609  98.5550 261.5625 15.08826187 94695,6917.923,95.438,540.901,538.675,0.0
